{"type": "FeatureCollection", "features": [ {"type": "Feature", "properties": {"norad_id": 34547, "name": "COSMOS 2251 DEB", "group": "cosmos-2251-debris", "lat": -21.56762990728452, "lon": 75.39507992798173, "alt_km": 669.49932898311, "timestamp": "2025-12-22T09:53:37.794641+00:00", "meta": {"OBJECT_NAME": "COSMOS 2251 DEB", "OBJECT_ID": "1993-036UH", "EPOCH": "2025-12-21T06:16:36.725088", "MEAN_MOTION": 14.72512483, "ECCENTRICITY": 0.00163934, "INCLINATION": 74.0317, "RA_OF_ASC_NODE": 84.1334, "ARG_OF_PERICENTER": 162.7845, "MEAN_ANOMALY": 197.3887, "EPHEMERIS_TYPE": 0, "CLASSIFICATION_TYPE": "U", "NORAD_CAT_ID": 34547, "ELEMENT_SET_NO": 999, "REV_AT_EPOCH": 88647, "BSTAR": 0.00122774, "MEAN_MOTION_DOT": 7.792e-05, "MEAN_MOTION_DDOT": 0}, "tle": {"line1": "1 34547U 93036UH  25355.26153617  .00007792  00000+0  12277-2 0  9990", "line2": "2 34547  74.0317  84.1334 0016393 162.7845 197.3887 14.72512483886478"}}, "geometry": {"type": "Point", "coordinates": [75.39507992798173, -21.56762990728452]}}, {"type": "Feature", "properties": {"norad_id": 34553, "name": "COSMOS 2251 DEB", "group": "cosmos-2251-debris", "lat": 72.67418110933599, "lon": -119.82779225760878, "alt_km": 706.1010335681385, "timestamp": "2025-12-22T09:53:37.794651+00:00", "meta": {"OBJECT_NAME": "COSMOS 2251 DEB", "OBJECT_ID": "1993-036UP", "EPOCH": "2025-12-21T12:14:40.588800", "MEAN_MOTION": 14.57796029, "ECCENTRICITY": 0.00191028, "INCLINATION": 74.0239, "RA_OF_ASC_NODE": 175.2044, "ARG_OF_PERICENTER": 251.8858, "MEAN_ANOMALY": 139.3143, "EPHEMERIS_TYPE": 0, "CLASSIFICATION_TYPE": "U", "NORAD_CAT_ID": 34553, "ELEMENT_SET_NO": 999, "REV_AT_EPOCH": 88224, "BSTAR": 0.0008261884, "MEAN_MOTION_DOT": 3.761e-05, "MEAN_MOTION_DDOT": 0}, "tle": {"line1": "1 34553U 93036UP  25355.51019200  .00003761  00000+0  82619-3 0  9994", "line2": "2 34553  74.0239 175.2044 0019102 251.8858 139.3143 14.57796029882248"}}, "geometry": {"type": "Point", "coordinates": [-119.82779225760878, 72.67418110933599]}}, {"type": "Feature", "properties": {"norad_id": 34554, "name": "COSMOS 2251 DEB", "group": "cosmos-2251-debris", "lat": -37.82466361644966, "lon": 114.02060223406538, "alt_km": 780.1161650744452, "timestamp": "2025-12-22T09:53:37.794661+00:00", "meta": {"OBJECT_NAME": "COSMOS 2251 DEB", "OBJECT_ID": "1993-036UQ", "EPOCH": "2025-12-20T05:48:54.109152", "MEAN_MOTION": 14.37952739, "ECCENTRICITY": 0.002333, "INCLINATION": 74.0392, "RA_OF_ASC_NODE": 285.1768, "ARG_OF_PERICENTER": 346.0878, "MEAN_ANOMALY": 165.1635, "EPHEMERIS_TYPE": 0, "CLASSIFICATION_TYPE": "U", "NORAD_CAT_ID": 34554, "ELEMENT_SET_NO": 999, "REV_AT_EPOCH": 87863, "BSTAR": 0.00024183, "MEAN_MOTION_DOT": 7.07e-06, "MEAN_MOTION_DDOT": 0}, "tle": {"line1": "1 34554U 93036UQ  25354.24229293  .00000707  00000+0  24183-3 0  9998", "line2": "2 34554  74.0392 285.1768 0023330 346.0878 165.1635 14.37952739878631"}}, "geometry": {"type": "Point", "coordinates": [114.02060223406538, -37.82466361644966]}}, {"type": "Feature", "properties": {"norad_id": 34556, "name": "COSMOS 2251 DEB", "group": "cosmos-2251-debris", "lat": -28.919993842707534, "lon": 96.73093339154725, "alt_km": 645.5140630473561, "timestamp": "2025-12-22T09:53:37.794670+00:00", "meta": {"OBJECT_NAME": "COSMOS 2251 DEB", "OBJECT_ID": "1993-036US", "EPOCH": "2025-12-21T16:27:52.255008", "MEAN_MOTION": 14.78050661, "ECCENTRICITY": 0.0006726, "INCLINATION": 74.0162, "RA_OF_ASC_NODE": 107.2698, "ARG_OF_PERICENTER": 167.0947, "MEAN_ANOMALY": 260.1645, "EPHEMERIS_TYPE": 0, "CLASSIFICATION_TYPE": "U", "NORAD_CAT_ID": 34556, "ELEMENT_SET_NO": 999, "REV_AT_EPOCH": 88461, "BSTAR": 0.0018073, "MEAN_MOTION_DOT": 0.00013055, "MEAN_MOTION_DDOT": 0}, "tle": {"line1": "1 34556U 93036US  25355.68602147  .00013055  00000+0  18073-2 0  9992", "line2": "2 34556  74.0162 107.2698 0006726 167.0947 260.1645 14.78050661884612"}}, "geometry": {"type": "Point", "coordinates": [96.73093339154725, -28.919993842707534]}}, {"type": "Feature", "properties": {"norad_id": 34560, "name": "COSMOS 2251 DEB", "group": "cosmos-2251-debris", "lat": 24.248776269842736, "lon": 130.70845918145005, "alt_km": 662.422205240684, "timestamp": "2025-12-22T09:53:37.794680+00:00", "meta": {"OBJECT_NAME": "COSMOS 2251 DEB", "OBJECT_ID": "1993-036UW", "EPOCH": "2025-12-21T19:39:42.022368", "MEAN_MOTION": 14.72348108, "ECCENTRICITY": 0.0013975, "INCLINATION": 74.0172, "RA_OF_ASC_NODE": 124.4456, "ARG_OF_PERICENTER": 206.7479, "MEAN_ANOMALY": 276.7329, "EPHEMERIS_TYPE": 0, "CLASSIFICATION_TYPE": "U", "NORAD_CAT_ID": 34560, "ELEMENT_SET_NO": 999, "REV_AT_EPOCH": 88385, "BSTAR": 0.0017282, "MEAN_MOTION_DOT": 0.00010939, "MEAN_MOTION_DDOT": 0}, "tle": {"line1": "1 34560U 93036UW  25355.81923637  .00010939  00000+0  17282-2 0  9991", "line2": "2 34560  74.0172 124.4456 0013975 206.7479 276.7329 14.72348108883853"}}, "geometry": {"type": "Point", "coordinates": [130.70845918145005, 24.248776269842736]}}, {"type": "Feature", "properties": {"norad_id": 34563, "name": "COSMOS 2251 DEB", "group": "cosmos-2251-debris", "lat": -23.826813058277438, "lon": 178.38791442619507, "alt_km": 736.6064327644717, "timestamp": "2025-12-22T09:53:37.794690+00:00", "meta": {"OBJECT_NAME": "COSMOS 2251 DEB", "OBJECT_ID": "1993-036UZ", "EPOCH": "2025-12-21T19:08:23.204256", "MEAN_MOTION": 14.46535511, "ECCENTRICITY": 0.0013929, "INCLINATION": 74.0366, "RA_OF_ASC_NODE": 186.7974, "ARG_OF_PERICENTER": 280.3194, "MEAN_ANOMALY": 94.7698, "EPHEMERIS_TYPE": 0, "CLASSIFICATION_TYPE": "U", "NORAD_CAT_ID": 34563, "ELEMENT_SET_NO": 999, "REV_AT_EPOCH": 88328, "BSTAR": 0.00033011, "MEAN_MOTION_DOT": 1.164e-05, "MEAN_MOTION_DDOT": 0}, "tle": {"line1": "1 34563U 93036UZ  25355.79749079  .00001164  00000+0  33011-3 0  9996", "line2": "2 34563  74.0366 186.7974 0013929 280.3194  94.7698 14.46535511883289"}}, "geometry": {"type": "Point", "coordinates": [178.38791442619507, -23.826813058277438]}}, {"type": "Feature", "properties": {"norad_id": 34564, "name": "COSMOS 2251 DEB", "group": "cosmos-2251-debris", "lat": -73.98203857791013, "lon": 134.26022198185183, "alt_km": 754.5133319805582, "timestamp": "2025-12-22T09:53:37.794701+00:00", "meta": {"OBJECT_NAME": "COSMOS 2251 DEB", "OBJECT_ID": "1993-036VA", "EPOCH": "2025-12-21T01:40:16.342176", "MEAN_MOTION": 14.40703135, "ECCENTRICITY": 0.00193185, "INCLINATION": 74.0316, "RA_OF_ASC_NODE": 222.6004, "ARG_OF_PERICENTER": 325.3273, "MEAN_ANOMALY": 185.3128, "EPHEMERIS_TYPE": 0, "CLASSIFICATION_TYPE": "U", "NORAD_CAT_ID": 34564, "ELEMENT_SET_NO": 999, "REV_AT_EPOCH": 88126, "BSTAR": 0.00017237979, "MEAN_MOTION_DOT": 5.25e-06, "MEAN_MOTION_DDOT": 0}, "tle": {"line1": "1 34564U 93036VA  25355.06963359  .00000525  00000+0  17238-3 0  9999", "line2": "2 34564  74.0316 222.6004 0019318 325.3273 185.3128 14.40703135881269"}}, "geometry": {"type": "Point", "coordinates": [134.26022198185183, -73.98203857791013]}}, {"type": "Feature", "properties": {"norad_id": 34567, "name": "COSMOS 2251 DEB", "group": "cosmos-2251-debris", "lat": 72.82841481049368, "lon": -108.4550188660618, "alt_km": 826.7898194568606, "timestamp": "2025-12-22T09:53:37.794711+00:00", "meta": {"OBJECT_NAME": "COSMOS 2251 DEB", "OBJECT_ID": "1993-036VD", "EPOCH": "2025-12-22T03:31:50.447424", "MEAN_MOTION": 14.24026818, "ECCENTRICITY": 0.0074178, "INCLINATION": 74.0409, "RA_OF_ASC_NODE": 139.8486, "ARG_OF_PERICENTER": 212.1023, "MEAN_ANOMALY": 326.4006, "EPHEMERIS_TYPE": 0, "CLASSIFICATION_TYPE": "U", "NORAD_CAT_ID": 34567, "ELEMENT_SET_NO": 999, "REV_AT_EPOCH": 87258, "BSTAR": 0.00022351, "MEAN_MOTION_DOT": 5.03e-06, "MEAN_MOTION_DDOT": 0}, "tle": {"line1": "1 34567U 93036VD  25356.14711166  .00000503  00000+0  22351-3 0  9997", "line2": "2 34567  74.0409 139.8486 0074178 212.1023 326.4006 14.24026818872585"}}, "geometry": {"type": "Point", "coordinates": [-108.4550188660618, 72.82841481049368]}}, {"type": "Feature", "properties": {"norad_id": 34569, "name": "COSMOS 2251 DEB", "group": "cosmos-2251-debris", "lat": -66.43364863477555, "lon": 139.4785811556271, "alt_km": 793.3109519973923, "timestamp": "2025-12-22T09:53:37.794721+00:00", "meta": {"OBJECT_NAME": "COSMOS 2251 DEB", "OBJECT_ID": "1993-036VF", "EPOCH": "2025-12-21T19:09:12.140352", "MEAN_MOTION": 14.24773702, "ECCENTRICITY": 0.0157717, "INCLINATION": 73.9894, "RA_OF_ASC_NODE": 181.7567, "ARG_OF_PERICENTER": 8.0761, "MEAN_ANOMALY": 12.2251, "EPHEMERIS_TYPE": 0, "CLASSIFICATION_TYPE": "U", "NORAD_CAT_ID": 34569, "ELEMENT_SET_NO": 999, "REV_AT_EPOCH": 87097, "BSTAR": 0.00035193, "MEAN_MOTION_DOT": 9.07e-06, "MEAN_MOTION_DDOT": 0}, "tle": {"line1": "1 34569U 93036VF  25355.79805718  .00000907  00000+0  35193-3 0  9992", "line2": "2 34569  73.9894 181.7567 0157717   8.0761  12.2251 14.24773702870975"}}, "geometry": {"type": "Point", "coordinates": [139.4785811556271, -66.43364863477555]}}, {"type": "Feature", "properties": {"norad_id": 34570, "name": "COSMOS 2251 DEB", "group": "cosmos-2251-debris", "lat": 66.05788533490855, "lon": -118.14417572812299, "alt_km": 751.0904140013536, "timestamp": "2025-12-22T09:53:37.794731+00:00", "meta": {"OBJECT_NAME": "COSMOS 2251 DEB", "OBJECT_ID": "1993-036VG", "EPOCH": "2025-12-21T06:41:00.076704", "MEAN_MOTION": 13.99833504, "ECCENTRICITY": 0.0190292, "INCLINATION": 73.9568, "RA_OF_ASC_NODE": 203.4332, "ARG_OF_PERICENTER": 84.0165, "MEAN_ANOMALY": 37.063, "EPHEMERIS_TYPE": 0, "CLASSIFICATION_TYPE": "U", "NORAD_CAT_ID": 34570, "ELEMENT_SET_NO": 999, "REV_AT_EPOCH": 85720, "BSTAR": 0.00041501, "MEAN_MOTION_DOT": 6.89e-06, "MEAN_MOTION_DDOT": 0}, "tle": {"line1": "1 34570U 93036VG  25355.27847311  .00000689  00000+0  41501-3 0  9999", "line2": "2 34570  73.9568 203.4332 0190292  84.0165  37.0630 13.99833504857209"}}, "geometry": {"type": "Point", "coordinates": [-118.14417572812299, 66.05788533490855]}}]}